     2.100          NAVIGATION                              RINEX VERSION / TYPE
fic2rin                                 01/04/2014 00:18:04 PGM / RUN BY / DATE
                                                            END OF HEADER
12 14  1  3 11 59 44.0  .177943147719D-03  .227373675443D-11  .000000000000D+00
     .300000000000D+01  .665625000000D+01  .435768151493D-08  .123612947028D+01
     .145286321640D-06  .467836752068D-02  .901520252228D-06  .515369985962D+04
     .475184000000D+06  .763684511185D-07 -.112783332557D+01  .819563865662D-07
     .986080790063D+00  .375062500000D+03  .328306267182D+00 -.841285042899D-08
     .478591363823D-10  .100000000000D+01  .177300000000D+04  .000000000000D+00
     .240000000000D+01  .000000000000D+00 -.121071934700D-07  .300000000000D+01
     .468006000000D+06  .400000000000D+01
31 14  1  3 11 59 44.0  .331927556545D-03  .454747350886D-12  .000000000000D+00
     .110000000000D+02  .141843750000D+03  .374158442344D-08  .157014111651D+01
     .740960240364D-05  .823556806426D-02  .955164432526D-05  .515375372887D+04
     .475184000000D+06  .150874257088D-06 -.218398777314D+01  .128522515297D-06
     .979437488886D+00  .201531250000D+03 -.690661493303D+00 -.770889253489D-08
     .272868508926D-09  .100000000000D+01  .177300000000D+04  .000000000000D+00
     .240000000000D+01  .000000000000D+00 -.130385160446D-07  .110000000000D+02
     .468006000000D+06  .400000000000D+01
 1 14  1  3 12  0  0.0  .979742035270D-04  .261479726760D-11  .000000000000D+00
     .680000000000D+02 -.406250000000D+01  .443732768965D-08  .211515511051D+01
    -.135973095894D-06  .261448475067D-02  .124741345644D-04  .515369043922D+04
     .475200000000D+06 -.614672899246D-07  .933359403697D+00  .707805156708D-07
     .960544911305D+00  .137750000000D+03  .419270037903D+00 -.785104131310D-08
     .590381734626D-09  .100000000000D+01  .177300000000D+04  .000000000000D+00
     .240000000000D+01  .000000000000D+00  .791624188423D-08  .680000000000D+02
     .468006000000D+06  .400000000000D+01
 2 14  1  3 12  0  0.0  .470611266792D-03  .216004991671D-11  .000000000000D+00
     .230000000000D+02 -.218750000000D+01  .476912722472D-08  .288977863648D+01
    -.197440385818D-06  .129421974998D-01  .120587646961D-04  .515379389381D+04
     .475200000000D+06 -.651925802231D-07  .906891258450D+00 -.201165676117D-06
     .939090293109D+00  .133093750000D+03 -.251984159311D+01 -.784568394709D-08
     .491091884520D-09  .100000000000D+01  .177300000000D+04  .000000000000D+00
     .240000000000D+01  .000000000000D+00 -.204890966415D-07  .230000000000D+02
     .468006000000D+06  .400000000000D+01
 4 14  1  3 12  0  0.0  .470411032438D-05  .341060513165D-12  .000000000000D+00
     .340000000000D+02 -.581250000000D+01  .506271088223D-08 -.430432455411D-01
    -.689178705215D-07  .106383622624D-01  .115223228931D-04  .515366842079D+04
     .475200000000D+06 -.391155481339D-07  .923063965571D+00  .106170773506D-06
     .938098095254D+00  .146031250000D+03  .107042220859D+01 -.832927551919D-08
     .473591155544D-09  .100000000000D+01  .177300000000D+04  .000000000000D+00
     .240000000000D+01  .000000000000D+00 -.651925802231D-08  .340000000000D+02
     .468006000000D+06  .400000000000D+01
 5 14  1  3 12  0  0.0 -.393542926759D-03  .113686837722D-11  .000000000000D+00
     .950000000000D+02  .145625000000D+02  .532665044780D-08 -.116952172026D+01
     .758096575737D-06  .352575909346D-02  .444613397121D-05  .515376078224D+04
     .475200000000D+06  .353902578354D-07  .197392190652D+01 -.558793544769D-08
     .947268016875D+00  .286875000000D+03  .369153602466D+00 -.851249743683D-08
     .478591363823D-10  .100000000000D+01  .177300000000D+04  .000000000000D+00
     .240000000000D+01  .000000000000D+00 -.102445483208D-07  .950000000000D+02
     .468006000000D+06  .400000000000D+01
 6 14  1  3 12  0  0.0  .220388174057D-03  .156887836056D-10  .000000000000D+00
     .470000000000D+02 -.151968750000D+03  .491949063082D-08 -.135782928443D+01
    -.803358852863D-05  .837003835477D-02  .825338065624D-05  .515369065666D+04
     .475200000000D+06  .149011611938D-07 -.184267749549D+00 -.856816768646D-07
     .943688749339D+00  .209781250000D+03 -.190676811209D+00 -.844499462507D-08
    -.212508851847D-09  .100000000000D+01  .177300000000D+04  .000000000000D+00
     .240000000000D+01  .000000000000D+00 -.512227416039D-08  .470000000000D+02
     .468006000000D+06  .400000000000D+01
 7 14  1  3 12  0  0.0  .298649538308D-03  .420641299570D-11  .000000000000D+00
     .290000000000D+02  .127250000000D+03  .390087677289D-08  .155381528868D+01
     .669434666634D-05  .698639790062D-02  .109691172838D-04  .515366598892D+04
     .475200000000D+06 -.465661287308D-07 -.218948881032D+01  .782310962677D-07
     .974480382197D+00  .173312500000D+03 -.283243645366D+01 -.788497129785D-08
     .215008955986D-09  .100000000000D+01  .177300000000D+04  .000000000000D+00
     .240000000000D+01  .000000000000D+00 -.107102096081D-07  .290000000000D+02
     .468006000000D+06  .400000000000D+01
 8 14  1  3 12  0  0.0  .110305845737D-04  .341060513165D-12  .000000000000D+00
     .650000000000D+02  .130187500000D+03  .349585990231D-08  .978706775934D+00
     .693090260029D-05  .134339160286D-01  .958703458309D-05  .515365992737D+04
     .475200000000D+06 -.819563865662D-07 -.209329700634D+01  .204890966415D-06
     .997465698393D+00  .213468750000D+03 -.279672726996D+01 -.773032199894D-08
     .233581158164D-09  .100000000000D+01  .177300000000D+04  .000000000000D+00
     .340000000000D+01  .000000000000D+00 -.465661287308D-08  .650000000000D+02
     .468006000000D+06  .400000000000D+01
 9 14  1  3 12  0  0.0  .295274425298D-03  .284217094304D-11  .000000000000D+00
     .111000000000D+03  .132875000000D+03  .361443627006D-08  .270826099298D+01
     .688806176186D-05  .168509080540D-01  .106468796730D-04  .515370653915D+04
     .475200000000D+06  .208616256714D-06 -.221102133037D+01 -.204890966415D-07
     .983064273464D+00  .179531250000D+03  .175747671353D+01 -.743495255276D-08
     .201079804352D-09  .100000000000D+01  .177300000000D+04  .000000000000D+00
     .485000000000D+01  .000000000000D+00 -.605359673500D-08  .111000000000D+03
     .468006000000D+06  .400000000000D+01
10 14  1  3 12  0  0.0 -.108508393168D-03 -.147792889038D-11  .000000000000D+00
     .480000000000D+02  .178437500000D+02  .555630287089D-08 -.822939779271D+00
     .104866921902D-05  .133678811835D-01  .441633164883D-05  .515367837906D+04
     .475200000000D+06  .111758708954D-06  .199204766048D+01  .268220901489D-06
     .942084577741D+00  .282531250000D+03  .847823593016D+00 -.872143471133D-08
    -.164292557730D-10  .100000000000D+01  .177300000000D+04  .000000000000D+00
     .240000000000D+01  .000000000000D+00 -.279396772385D-08  .480000000000D+02
     .468006000000D+06  .400000000000D+01
11 14  1  3 12  0  0.0 -.452369451523D-03 -.329691829393D-11  .000000000000D+00
     .100000000000D+02 -.592187500000D+02  .591310344735D-08  .178678622019D+01
    -.320188701153D-05  .147655856563D-01  .135991722345D-04  .515370329094D+04
     .475200000000D+06 -.154599547386D-06  .620075040592D+00 -.350177288055D-06
     .890067001263D+00  .789062500000D+02  .125570864652D+01 -.854357015970D-08
     .365372362083D-09  .100000000000D+01  .177300000000D+04  .000000000000D+00
     .240000000000D+01  .000000000000D+00 -.116415321827D-07  .100000000000D+02
     .468006000000D+06  .400000000000D+01
13 14  1  3 12  0  0.0  .435914844275D-04 -.375166564481D-11  .000000000000D+00
     .810000000000D+02 -.659375000000D+01  .396909390012D-08 -.235574249093D+01
    -.346451997757D-06  .510307867080D-02  .117868185043D-04  .515365462494D+04
     .475200000000D+06  .223517417908D-07  .312863753677D+01  .558793544769D-07
     .979474664560D+00  .161312500000D+03  .219007393074D+01 -.763496088391D-08
    -.702886420898D-09  .100000000000D+01  .177300000000D+04  .000000000000D+00
     .240000000000D+01  .000000000000D+00 -.111758708954D-07  .810000000000D+02
     .468006000000D+06  .400000000000D+01
14 14  1  3 12  0  0.0  .205826479942D-03 -.125055521494D-11  .000000000000D+00
     .200000000000D+02  .434375000000D+01  .406445501515D-08 -.207371433665D+01
     .175088644028D-06  .729449500795D-02  .113639980555D-04  .515360279846D+04
     .475200000000D+06  .158324837685D-06  .309782988935D+01 -.521540641785D-07
     .972061766069D+00  .168125000000D+03 -.198428785730D+01 -.757995859284D-08
    -.616454249222D-09  .100000000000D+01  .177300000000D+04  .000000000000D+00
     .240000000000D+01  .000000000000D+00 -.884756445885D-08  .200000000000D+02
     .468006000000D+06  .400000000000D+01
15 14  1  3 12  0  0.0 -.155644025654D-03 -.204636307899D-11  .000000000000D+00
     .141000000000D+03 -.246250000000D+02  .491091884520D-08 -.259528757587D+01
    -.129826366901D-05  .608505203854D-02  .104233622551D-04  .515362805557D+04
     .475200000000D+06 -.931322574615D-07  .299069146582D+01 -.502914190292D-07
     .938574146352D+00  .168968750000D+03  .218299273430D+00 -.817284043161D-08
    -.607525305868D-09  .100000000000D+01  .177300000000D+04  .000000000000D+00
     .340000000000D+01  .000000000000D+00 -.102445483208D-07  .141000000000D+03
     .468006000000D+06  .400000000000D+01
16 14  1  3 12  0  0.0 -.236686784774D-03  .136424205266D-11  .000000000000D+00
     .106000000000D+03 -.450000000000D+01  .439125434194D-08 -.948582745742D+00
    -.249594449997D-06  .726336124353D-02  .536441802979D-06  .515377325821D+04
     .475200000000D+06  .689178705215D-07 -.110933233898D+01 -.130385160446D-06
     .986725271308D+00  .377375000000D+03  .128974374723D+00 -.845285209522D-08
     .145720355552D-09  .100000000000D+01  .177300000000D+04  .000000000000D+00
     .240000000000D+01  .000000000000D+00 -.977888703346D-08  .106000000000D+03
     .468006000000D+06  .400000000000D+01
